GSAT0207 (GALILEO 15)
1 41859U 16069A   25331.54733214  .00000053  00000+0  00000+0 0  9998
2 41859  55.3731 106.6711 0002049 327.0385  32.9292  1.70474273 55965